address_line_1,city,state,zipcode
"P.O. Box 743, 502 Accumsan Road",Aurora,CO,84507
Ap #167-1488 Nunc Avenue,St. Petersburg,FL,25946
"P.O. Box 572, 6508 Placerat. Rd.",New Orleans,LA,73395
400-1666 Consequat Avenue,Kearney,NE,50803
"P.O. Box 185, 9536 Quisque Road",Eugene,Oregon,81013
"670-7732 Ac, Street",New Orleans,LA,50900
"P.O. Box 237, 5982 Aenean Road",Wyoming,WY,91121
2080 Est. Ave,Fresno,California,94024
Ap #769-9482 Etiam Street,Dover,Delaware,44536
996 Quisque Rd.,Gaithersburg,Maryland,34321
"P.O. Box 376, 8909 Augue Street",Bellevue,Nebraska,68094
"P.O. Box 314, 5057 Arcu. St.",Little Rock,Arkansas,71096
801-9052 Ac Avenue,Cincinnati,OH,32312
7753 Eu Rd.,Detroit,Michigan,55868
6473 Dolor. Av.,Independence,Missouri,27314
"898-4759 Non, St.",Portland,Oregon,44753
7980 Neque. Av.,Norman,Oklahoma,34239
507-7939 Aliquam Road,Nashville,Tennessee,95376
"701-4408 Magna, Rd.",Biloxi,Mississippi,73921
"Ap #748-3376 Purus, Av.",Savannah,Georgia,31257
6239 Nulla Ave,Kenosha,WI,78289
"P.O. Box 860, 6120 Ipsum Av.",Pike Creek,Delaware,24149
"Ap #414-4215 Enim, Rd.",Shreveport,LA,64331
"P.O. Box 597, 6718 Malesuada St.",Kansas City,Kansas,51695
Ap #628-8185 Ultricies Rd.,Fresno,California,92869
Ap #652-9081 Diam. Rd.,Reno,NV,22393
"P.O. Box 194, 6111 Vivamus Rd.",Akron,OH,34030
375-6585 Egestas Ave,Shreveport,Louisiana,40108
"P.O. Box 854, 9346 Egestas. Ave",Spokane,Washington,58273
972-4249 Vitae Avenue,Juneau,Alaska,99936
"P.O. Box 945, 9921 Ut Ave",Lexington,Kentucky,34309
8288 Scelerisque St.,Dallas,Texas,96144
"Ap #954-9923 Orci, Street",Carson City,NV,43176
"470-530 Sem, Av.",Milwaukee,Wisconsin,45018
"P.O. Box 634, 9069 Ridiculus Rd.",Henderson,NV,25554
3295 Et Road,Dover,Delaware,41006
131-9512 Facilisis. St.,Idaho Falls,Idaho,82125
"Ap #689-1647 Non, Avenue",South Portland,ME,87085
897-7077 Laoreet St.,Richmond,VA,13997
"P.O. Box 931, 1816 Nibh St.",Lincoln,NE,75818
"P.O. Box 364, 1338 Non, Rd.",Lexington,Kentucky,97795
Ap #716-6413 Senectus Avenue,Montpelier,VT,48111
288-3867 Vel St.,Kapolei,HI,57065
5464 Mauris Rd.,Sandy,Utah,93938
"P.O. Box 112, 1242 Est Av.",Broken Arrow,Oklahoma,31743
"P.O. Box 240, 2215 Imperdiet Rd.",Chattanooga,Tennessee,44566
"P.O. Box 422, 105 Dolor, Avenue",Kailua,Hawaii,73994
444-7799 Felis Rd.,Racine,WI,28938
Ap #154-2125 Lorem Road,Stamford,Connecticut,59118
247-7982 Purus. Av.,Grand Rapids,Michigan,82654
2805 Dui St.,Overland Park,Kansas,12037
521-9023 Praesent Rd.,Columbus,OH,50748
993-5583 Luctus Avenue,Memphis,TN,22715
5404 Purus Av.,Columbia,MD,47107
8219 Et Rd.,New Orleans,Louisiana,74247
Ap #324-2161 Odio Rd.,Salem,Oregon,17487
Ap #204-7755 Erat Ave,Tacoma,Washington,50021
"P.O. Box 933, 122 Sapien. Ave",Detroit,MI,86251
3039 Augue Road,Ketchikan,AK,99669
3692 At Rd.,Reading,PA,77998
967-3983 Sodales Road,Meridian,ID,38752
Ap #626-775 In St.,Phoenix,AZ,86487
"P.O. Box 257, 6114 Lorem St.",Columbus,Georgia,96237
"Ap #288-6786 Ultrices, Road",Frederick,MD,11054
"P.O. Box 286, 5058 Lectus, Rd.",Savannah,Georgia,97837
Ap #296-914 Maecenas Rd.,Lexington,KY,55579
"P.O. Box 287, 2354 Quisque St.",Fort Collins,Colorado,68722
"P.O. Box 624, 5485 Interdum Road",Akron,Ohio,23175
140-3383 Erat Road,Spokane,Washington,82069
"P.O. Box 569, 3982 Eget Avenue",Eugene,Oregon,86706
"P.O. Box 171, 3354 Eros. St.",Wichita,Kansas,63806
Ap #624-807 Neque. Av.,Henderson,Nevada,68701
539-1464 Dolor Av.,Iowa City,Iowa,45715
"P.O. Box 253, 2765 Mauris St.",Sioux City,Iowa,81349
"P.O. Box 698, 6620 Pulvinar St.",Bear,Delaware,19300
"P.O. Box 811, 5890 Blandit Avenue",Kailua,HI,56613
"384-5371 In, Av.",Cleveland,Ohio,35324
430-3673 Sem Street,Rock Springs,Wyoming,73402
248-5312 Ipsum St.,South Burlington,Vermont,77616
1297 Nam St.,New Orleans,Louisiana,20367
3908 Sem. Street,Laramie,Wyoming,96510
894-9564 Ante. Ave,Cincinnati,OH,45232
5604 Malesuada. St.,Butte,Montana,61322
1231 Elementum Rd.,Gulfport,MS,79543
890-9875 Mi Av.,South Portland,Maine,85055
"P.O. Box 251, 9073 Fermentum Avenue",Duluth,Minnesota,23135
Ap #132-9870 Nibh. Road,New Orleans,LA,28049
Ap #291-7815 Dui Rd.,Evansville,Indiana,90170
397-861 Accumsan Ave,Hartford,CT,92874
"2023 Enim, St.",Reno,NV,26168
"P.O. Box 743, 1939 Interdum St.",Pocatello,Idaho,64324
Ap #328-5825 Porttitor St.,Savannah,Georgia,59996
"881-6590 Non, Street",Detroit,MI,42073
359-7951 Auctor Ave,Duluth,Minnesota,16421
4428 Nonummy St.,Gulfport,MS,98346
"394-4620 Sapien, Road",Harrisburg,Pennsylvania,22769
4463 Mauris Rd.,Biloxi,MS,30148
2688 Congue. Ave,Paradise,Nevada,72332
8287 Sollicitudin Rd.,Saint Louis,Missouri,32736
Ap #948-1016 Ligula. Road,Little Rock,Arkansas,71467
209 Superior Trail,Portland,Oregon,97229
62 Sloan Point,Burbank,California,91505
16711 Shelley Way,Phoenix,Arizona,85045
48 Golden Leaf Way,White Plains,New York,10633
13 Rigney Lane,Jacksonville,Florida,32255
59 Stuart Pass,Fort Lauderdale,Florida,33355
4 Onsgard Pass,Washington,District of Columbia,20010
7 Donald Point,Cedar Rapids,Iowa,52405
219 Corscot Street,Tampa,Florida,33615
382 Petterle Terrace,Olympia,Washington,98516
11734 Dottie Parkway,San Francisco,California,94142
11 Forest Run Junction,Jamaica,New York,11407
20869 Larry Plaza,Little Rock,Arkansas,72222
3480 Cardinal Point,Morgantown,West Virginia,26505
7403 Hoffman Park,Corpus Christi,Texas,78426
853 Cordelia Trail,Naples,Florida,33961
1456 Bashford Drive,Minneapolis,Minnesota,55470
4 La Follette Park,Stockton,California,95219
25 Elka Park,Fresno,California,93715
13628 Moland Parkway,Carol Stream,Illinois,60351
5988 Hallows Center,Spartanburg,South Carolina,29305
1 Sutherland Way,Richmond,Virginia,23237
1 Brentwood Pass,Pittsburgh,Pennsylvania,15220
0 Annamark Point,Murfreesboro,Tennessee,37131
57 Kim Lane,Temple,Texas,76505
2952 Leroy Junction,Fort Wayne,Indiana,46862
9 Monument Terrace,Charleston,South Carolina,29411
49 Reindahl Court,Pittsburgh,Pennsylvania,15286
49 Park Meadow Alley,Spokane,Washington,99205
53 Beilfuss Crossing,Wichita Falls,Texas,76310
53 Manitowish Center,Saint Louis,Missouri,63167
65097 La Follette Crossing,Las Vegas,Nevada,89155
34843 Walton Avenue,Atlanta,Georgia,30392
535 Badeau Alley,Ridgely,Maryland,21684
79 Portage Place,Wilmington,Delaware,19892
9 Hallows Court,New York City,New York,10099
8 Leroy Point,Lubbock,Texas,79405
28 Fisk Drive,Dallas,Texas,75358
290 Norway Maple Park,Dallas,Texas,75372
12 Dapin Crossing,Charleston,West Virginia,25331
815 Messerschmidt Junction,Washington,District of Columbia,20205
834 Mcbride Park,Trenton,New Jersey,08603
23 Summer Ridge Parkway,Lynchburg,Virginia,24515
46756 Scofield Trail,Nashville,Tennessee,37220
9 Sunfield Pass,Cincinnati,Ohio,45223
739 Elgar Crossing,Providence,Rhode Island,02912
30 Sunbrook Road,Austin,Texas,78764
0 Bartelt Way,Memphis,Tennessee,38131
84152 Eastwood Plaza,Flint,Michigan,48550
57983 Hovde Place,Cedar Rapids,Iowa,52405
0 Morning Point,Charlottesville,Virginia,22908
37577 Harbort Avenue,Oklahoma City,Oklahoma,73197
47073 Farwell Lane,Honolulu,Hawaii,96840
88565 Burning Wood Avenue,Anderson,South Carolina,29625
872 Cody Parkway,El Paso,Texas,88530
5 Morrow Court,Albuquerque,New Mexico,87180
4 Autumn Leaf Road,Arlington,Texas,76096
5 Trailsway Drive,Newport News,Virginia,23612
9 Briar Crest Pass,Fresno,California,93740
05 Northview Parkway,Spokane,Washington,99260
80761 Mendota Court,Milwaukee,Wisconsin,53205
1594 International Trail,Pasadena,California,91117
005 Coleman Lane,Tampa,Florida,33605
4 Dixon Terrace,Macon,Georgia,31217
00621 Atwood Hill,Santa Clara,California,95054
2 Holy Cross Plaza,Huntington,West Virginia,25705
033 Cherokee Way,San Jose,California,95113
31991 Rockefeller Street,Boise,Idaho,83732
5768 Pennsylvania Crossing,Las Vegas,Nevada,89145
58 Graedel Road,Minneapolis,Minnesota,55436
59 Fulton Trail,El Paso,Texas,79977
1163 Anderson Terrace,Las Vegas,Nevada,89166
36801 Spohn Way,Minneapolis,Minnesota,55480
7527 Kinsman Court,South Bend,Indiana,46614
80063 Kennedy Point,Saint Paul,Minnesota,55114
21061 Surrey Court,Lancaster,Pennsylvania,17605
57357 International Lane,Irvine,California,92619
81 Carioca Parkway,Toledo,Ohio,43615
96523 Cascade Avenue,Washington,District of Columbia,20566
41324 Hudson Avenue,Hartford,Connecticut,06160
3269 Merrick Park,Columbus,Ohio,43240
574 Lunder Drive,Lexington,Kentucky,40505
130 Commercial Avenue,Lima,Ohio,45807
18 Carioca Terrace,Monticello,Minnesota,55590
0 Crowley Place,Charleston,South Carolina,29403
785 Manley Crossing,Houston,Texas,77065
5 Londonderry Road,Cincinnati,Ohio,45238
100 Myrtle Way,Brockton,Massachusetts,02405
93 Anhalt Court,Grand Rapids,Michigan,49510
257 Milwaukee Pass,Roanoke,Virginia,24020
567 La Follette Drive,Hialeah,Florida,33018
933 Sherman Pass,Oklahoma City,Oklahoma,73124
58 Maryland Crossing,Fargo,North Dakota,58106
529 Hagan Pass,Phoenix,Arizona,85020
510 Merry Trail,San Bernardino,California,92410
6 Cambridge Point,El Paso,Texas,79950
5 Service Way,Lubbock,Texas,79415
292 Oneill Street,Charlotte,North Carolina,28242
1 Shoshone Drive,Oakland,California,94622
604 Scofield Junction,Arvada,Colorado,80005
39196 Warrior Terrace,San Francisco,California,94164
04 8th Point,Chicago,Illinois,60646
9 Morningstar Trail,Dayton,Ohio,45426
91470 Riverside Parkway,Fort Worth,Texas,76134
5728 Dunning Junction,Monticello,Minnesota,55585
2 Roth Point,Anchorage,Alaska,99507
0 Spohn Lane,El Paso,Texas,88514
67 Oxford Terrace,Warren,Ohio,44485
06 Lakewood Hill,Cape Coral,Florida,33915
13729 Novick Point,Fresno,California,93750
92 Emmet Road,Davenport,Iowa,52804
706 Cottonwood Hill,Scottsdale,Arizona,85260
51 Melody Point,Madison,Wisconsin,53710
07 Farwell Crossing,Roanoke,Virginia,24029
8 Helena Drive,Oklahoma City,Oklahoma,73179
8666 Ludington Drive,Portland,Oregon,97232
53 Paget Crossing,Boston,Massachusetts,02124
820 Schlimgen Lane,Columbus,Georgia,31914
1 Kropf Avenue,Washington,District of Columbia,20016
85098 Boyd Lane,Chicago,Illinois,60681
09858 Florence Plaza,Indianapolis,Indiana,46207
847 Oriole Circle,Tampa,Florida,33661
95 Carey Place,Denton,Texas,76210
452 Hazelcrest Trail,Huntington,West Virginia,25721
598 Lawn Way,Charleston,West Virginia,25331
025 Morrow Junction,Grand Rapids,Michigan,49560
878 Summit Road,Tucson,Arizona,85715
83758 Clarendon Plaza,Homestead,Florida,33034
4888 Pine View Court,Bloomington,Indiana,47405
47934 Express Hill,Juneau,Alaska,99812
3 Helena Alley,Phoenix,Arizona,85035
9 Hanover Road,Detroit,Michigan,48232
23802 Rutledge Way,Houston,Texas,77250
49 Sherman Way,Columbus,Ohio,43231
3961 Heath Place,Round Rock,Texas,78682
9609 Sommers Pass,Cleveland,Ohio,44177
3702 Fallview Hill,Knoxville,Tennessee,37995
4699 Roxbury Trail,Saint Joseph,Missouri,64504
5 Calypso Drive,Saint Petersburg,Florida,33731
7 Farwell Point,Louisville,Kentucky,40233
695 Roth Park,Oklahoma City,Oklahoma,73129
7 Loomis Lane,Peoria,Illinois,61656
64 Riverside Street,Carlsbad,California,92013
616 Crownhardt Trail,Indianapolis,Indiana,46247
30770 Swallow Road,Lawrenceville,Georgia,30245
145 Packers Junction,Pueblo,Colorado,81005
05578 Nancy Circle,Warren,Ohio,44485
3 Westport Drive,Birmingham,Alabama,35225
4 Darwin Point,Lake Worth,Florida,33462
01635 Veith Road,College Station,Texas,77844
791 Bellgrove Plaza,Boise,Idaho,83727
79 Onsgard Lane,Miami,Florida,33111
0 Stoughton Terrace,Saint Paul,Minnesota,55123
545 Fairview Point,Birmingham,Alabama,35295
55944 Hermina Court,Oklahoma City,Oklahoma,73152
063 Nelson Court,Vero Beach,Florida,32969
22856 Linden Pass,Memphis,Tennessee,38197
6 Pearson Center,New Orleans,Louisiana,70165
69 Sullivan Park,White Plains,New York,10606
5 Donald Drive,Oklahoma City,Oklahoma,73129
8 Arapahoe Street,Redwood City,California,94064
33 Straubel Junction,Winston Salem,North Carolina,27150
7 Orin Street,Kansas City,Missouri,64114
0 Buhler Junction,Silver Spring,Maryland,20918
8351 Merchant Street,Baltimore,Maryland,21282
3655 Holy Cross Court,Duluth,Georgia,30195
556 Heffernan Park,Mesa,Arizona,85215
5457 Columbus Parkway,Miami,Florida,33129
106 Anthes Plaza,Wichita,Kansas,67205
4033 Sundown Park,Dallas,Texas,75241
8 Brown Avenue,Akron,Ohio,44321
4228 Southridge Junction,Richmond,California,94807
29 Clyde Gallagher Lane,Austin,Texas,78732
3 Dwight Pass,Paterson,New Jersey,07544
71 Parkside Drive,Brooklyn,New York,11231
882 Colorado Avenue,Anaheim,California,92825
26 Sauthoff Lane,Chicago,Illinois,60646
3951 Sherman Center,Roanoke,Virginia,24029
452 Calypso Park,Raleigh,North Carolina,27615
673 Homewood Plaza,Odessa,Texas,79764
4 Calypso Road,Bridgeport,Connecticut,06606
45 Manitowish Junction,Roanoke,Virginia,24029
4 Division Place,Houston,Texas,77234
55829 Veith Parkway,Cincinnati,Ohio,45218
33 Milwaukee Place,Las Vegas,Nevada,89125
5 Twin Pines Circle,New York City,New York,10024
617 Colorado Pass,Birmingham,Alabama,35220
3 Express Pass,Washington,District of Columbia,20370
8410 Dwight Terrace,Denver,Colorado,80255
19 Warbler Lane,Clearwater,Florida,34629
04 Golden Leaf Junction,White Plains,New York,10606
0398 Mosinee Circle,Oklahoma City,Oklahoma,73152
76098 Dayton Center,Colorado Springs,Colorado,80951
1574 Mayfield Plaza,New Orleans,Louisiana,70116
8540 Cody Terrace,Fort Lauderdale,Florida,33315
770 Messerschmidt Drive,Panama City,Florida,32405
0 Forest Run Circle,Harrisburg,Pennsylvania,17126
76 Swallow Park,Sacramento,California,95894
1710 Montana Trail,Toledo,Ohio,43666
916 Chinook Point,Las Vegas,Nevada,89110
1 Valley Edge Pass,Tacoma,Washington,98417
8 West Circle,Memphis,Tennessee,38188
88 Hoard Way,San Bernardino,California,92424
2277 Anzinger Park,Charlotte,North Carolina,28247
32 Merry Lane,New Haven,Connecticut,06533
56533 Anthes Plaza,Lansing,Michigan,48912
68 Bayside Crossing,Milwaukee,Wisconsin,53215
46982 5th Trail,Racine,Wisconsin,53405
8354 Center Place,Terre Haute,Indiana,47805
38447 Northview Hill,Saint Louis,Missouri,63110
81 Meadow Ridge Way,Oklahoma City,Oklahoma,73167
742 Maywood Lane,Anchorage,Alaska,99599
477 Armistice Center,East Saint Louis,Illinois,62205
7782 Randy Street,Fort Worth,Texas,76110
5961 Prairie Rose Way,Jackson,Mississippi,39204
065 Arizona Avenue,Washington,District of Columbia,20508
803 Basil Park,New Orleans,Louisiana,70129
4847 Kipling Pass,North Port,Florida,34290
7754 Forest Run Circle,Tampa,Florida,33686
6609 Pawling Place,Norfolk,Virginia,23551
6 Harper Trail,Des Moines,Iowa,50305
64128 Bluejay Avenue,Baton Rouge,Louisiana,70805
48 Eastlawn Point,Tulsa,Oklahoma,74170
89919 Hintze Street,New Haven,Connecticut,06538
75 Muir Avenue,Lafayette,Louisiana,70593
2 Gale Crossing,Daytona Beach,Florida,32118
8976 6th Court,Charleston,West Virginia,25321
47 Talmadge Hill,Boca Raton,Florida,33432
6 Mendota Avenue,Miami,Florida,33185
383 Dennis Crossing,Atlanta,Georgia,30343
689 Bartillon Lane,Scottsdale,Arizona,85271
418 Lakewood Court,Washington,District of Columbia,20310
8210 Memorial Pass,North Las Vegas,Nevada,89087
6 Maple Wood Junction,Sioux City,Iowa,51110
5908 Kinsman Way,Kansas City,Missouri,64136
769 Mockingbird Lane,Oklahoma City,Oklahoma,73104
47672 Almo Road,Philadelphia,Pennsylvania,19136
83 Vahlen Avenue,Jefferson City,Missouri,65105
1886 Buena Vista Point,Colorado Springs,Colorado,80935
0 Maple Plaza,Nashville,Tennessee,37215
6064 Roxbury Road,Wilmington,North Carolina,28405
99 Stang Circle,Philadelphia,Pennsylvania,19131
6018 Hintze Place,Baton Rouge,Louisiana,70810
3053 Gateway Court,Mount Vernon,New York,10557
62 Lien Hill,Bowie,Maryland,20719
74615 Grayhawk Crossing,Tulsa,Oklahoma,74133
2 Paget Place,Lafayette,Louisiana,70505
31399 Cordelia Place,Reston,Virginia,22096
58 Barnett Avenue,Tucson,Arizona,85705
0 Dottie Trail,Charlotte,North Carolina,28230
29 Trailsway Circle,Silver Spring,Maryland,20910
8618 Onsgard Pass,Hollywood,Florida,33023
20 Shoshone Junction,Louisville,Kentucky,40205
3 Laurel Terrace,Roanoke,Virginia,24004
98 Redwing Alley,Lawrenceville,Georgia,30045
5 Fordem Parkway,Peoria,Arizona,85383
48475 Park Meadow Crossing,Billings,Montana,59105
323 Maple Trail,Tampa,Florida,33615
84778 Roxbury Crossing,Brooklyn,New York,11215
80514 Gina Circle,Portsmouth,New Hampshire,00214
840 Warrior Trail,Portland,Oregon,97271
637 Eastlawn Park,Prescott,Arizona,86305
592 Dorton Place,Topeka,Kansas,66629
009 Maywood Hill,Kansas City,Missouri,64144
11484 Shopko Center,San Antonio,Texas,78245
4 Coolidge Junction,Van Nuys,California,91499
88608 Graedel Court,Atlanta,Georgia,30392
5243 Vidon Hill,Ogden,Utah,84403
65943 Boyd Circle,Milwaukee,Wisconsin,53225
54027 Melvin Lane,Greensboro,North Carolina,27499
19727 Mallard Hill,Albuquerque,New Mexico,87115
2529 Burning Wood Terrace,Brooklyn,New York,11236
6699 Bluejay Avenue,Chicago,Illinois,60624
93377 Lerdahl Court,Maple Plain,Minnesota,55579
9 Longview Street,Seattle,Washington,98109
5 Weeping Birch Avenue,San Mateo,California,94405
34433 Old Gate Alley,Durham,North Carolina,27710
19 Cody Center,Brooklyn,New York,11254
672 8th Plaza,Birmingham,Alabama,35220
80 Mayfield Plaza,Portland,Oregon,97271
5187 Bowman Avenue,Phoenix,Arizona,85062
223 Jenifer Parkway,Washington,District of Columbia,20525
9 Dunning Trail,El Paso,Texas,88535
223 Lukken Parkway,Naples,Florida,34114
9255 Elmside Center,Decatur,Illinois,62525
0 Sunnyside Street,Paterson,New Jersey,07522
030 Grasskamp Park,Alexandria,Virginia,22313
468 Granby Avenue,Fresno,California,93750
82 Montana Circle,Waco,Texas,76711
7417 Milwaukee Junction,Springfield,Illinois,62794
09697 Summit Parkway,Portland,Oregon,97240
9 Village Green Court,Brockton,Massachusetts,02405
68931 Manufacturers Circle,New Orleans,Louisiana,70124
2328 Badeau Terrace,Albany,New York,12255
3 Crest Line Road,Corona,California,92878
263 Acker Point,Dayton,Ohio,45403
638 Vernon Junction,Des Moines,Iowa,50981
0 Basil Lane,Manassas,Virginia,22111
94945 Union Drive,Saint Petersburg,Florida,33705
34316 Lakewood Court,Santa Barbara,California,93111
5 Dapin Crossing,Washington,District of Columbia,20073
10 Eagle Crest Road,Midland,Texas,79710
1327 Calypso Alley,Chattanooga,Tennessee,37410
41 Mosinee Alley,Richmond,Virginia,23228
525 Barnett Pass,Albuquerque,New Mexico,87201
4 Dottie Lane,Saint Louis,Missouri,63150
0403 Eggendart Place,San Francisco,California,94126
7575 Becker Lane,Detroit,Michigan,48267
52 Lotheville Terrace,Houston,Texas,77070
1 Fulton Court,Duluth,Minnesota,55811
38 Vera Avenue,Memphis,Tennessee,38188
242 Ramsey Place,Charlotte,North Carolina,28225
65 Leroy Way,Fort Lauderdale,Florida,33336
644 Service Way,Minneapolis,Minnesota,55441
6863 Washington Place,Erie,Pennsylvania,16522
124 Hovde Terrace,Saint Louis,Missouri,63136
74764 Sutherland Crossing,Philadelphia,Pennsylvania,19109
87 Drewry Circle,San Francisco,California,94169
50 Clove Way,Albany,New York,12232
482 Daystar Alley,Reno,Nevada,89519
46699 Autumn Leaf Park,Minneapolis,Minnesota,55428
3601 Pond Hill,Brooklyn,New York,11247
373 Judy Road,Laredo,Texas,78044
78385 Sutherland Avenue,Waterbury,Connecticut,06721
1203 Golf Lane,High Point,North Carolina,27264
41 Old Shore Terrace,Lincoln,Nebraska,68531
45627 Lillian Circle,El Paso,Texas,79994
08150 5th Alley,Lincoln,Nebraska,68524
28510 Cherokee Lane,Hartford,Connecticut,06152
003 La Follette Alley,Humble,Texas,77346
655 Gale Trail,Lafayette,Louisiana,70505
34616 Veith Center,Denver,Colorado,80270
2355 Hoepker Plaza,Atlanta,Georgia,30311
68051 Leroy Pass,Gainesville,Georgia,30506
73 Northfield Park,Houston,Texas,77240
284 Schurz Avenue,Kansas City,Missouri,64136
4 Michigan Drive,Waco,Texas,76705
5 Linden Plaza,Savannah,Georgia,31422
6579 Graceland Center,Indianapolis,Indiana,46216
9411 7th Trail,Prescott,Arizona,86305
06 2nd Hill,Bonita Springs,Florida,34135
83167 Stuart Terrace,Ocala,Florida,34474
26 Sycamore Pass,Saint Paul,Minnesota,55115
6 Gateway Avenue,Athens,Georgia,30610
30295 Hovde Alley,Oakland,California,94611
23 Warner Center,Sacramento,California,94273
316 Dapin Junction,Seattle,Washington,98166
4 Schmedeman Way,Portland,Oregon,97240
82698 Bobwhite Place,Dulles,Virginia,20189
6863 Moulton Parkway,Washington,District of Columbia,20029
44 Talmadge Circle,Amarillo,Texas,79105
51893 Darwin Plaza,Charleston,South Carolina,29403
31828 Lakewood Hill,Montgomery,Alabama,36195
543 Kedzie Plaza,Spokane,Washington,99260
789 Maywood Trail,Fairfield,Connecticut,06825
7 Continental Center,Boise,Idaho,83727
3 Melrose Drive,Kansas City,Missouri,64187
22011 Lawn Junction,Dallas,Texas,75246
92882 Walton Junction,Honolulu,Hawaii,96810
343 Arizona Junction,Chicago,Illinois,60641
261 Moland Parkway,Bronx,New York,10454
79213 Stang Junction,New York City,New York,10249
51 Rigney Street,San Diego,California,92191
571 Dayton Hill,Spokane,Washington,99260
95 Pennsylvania Pass,Norfolk,Virginia,23520
25711 Havey Avenue,Tucson,Arizona,85737
492 Helena Place,El Paso,Texas,88579
731 Parkside Terrace,San Diego,California,92121
4043 Weeping Birch Junction,Lexington,Kentucky,40591
8 Leroy Circle,Rochester,New York,14604
5773 Fremont Junction,Salt Lake City,Utah,84125
43 Paget Parkway,Philadelphia,Pennsylvania,19178
5 3rd Place,Washington,District of Columbia,20575
92 Meadow Vale Way,Huntington,West Virginia,25721
292 Forest Plaza,Fort Myers,Florida,33906
32 Oakridge Avenue,North Hollywood,California,91616
9438 Longview Way,Cleveland,Ohio,44118
41588 Kim Drive,Atlanta,Georgia,30368
7991 Logan Road,Savannah,Georgia,31410
8711 Little Fleur Drive,Norfolk,Virginia,23520
4 Ronald Regan Road,Lexington,Kentucky,40576
42238 Dorton Terrace,Long Beach,California,90840
66193 Kropf Hill,Scottsdale,Arizona,85260
756 Lake View Road,Rochester,New York,14604
47 Red Cloud Circle,Lincoln,Nebraska,68583
2 Nancy Alley,El Paso,Texas,79984
82352 Gina Street,Honolulu,Hawaii,96815
4 Johnson Alley,New York City,New York,10120
002 Jenna Point,Grand Rapids,Michigan,49544
0 Mayer Lane,Miami,Florida,33164
32643 Chive Way,Tampa,Florida,33647
6 Merchant Circle,Saint Louis,Missouri,63196
0 Algoma Park,Spokane,Washington,99220
960 Reinke Way,Washington,District of Columbia,20436
47 Schlimgen Terrace,Paterson,New Jersey,07544
799 Anthes Road,Visalia,California,93291
4112 Mesta Street,Tampa,Florida,33673
840 Old Gate Center,Washington,District of Columbia,20029
884 Rockefeller Way,Knoxville,Tennessee,37914
7060 Sunnyside Trail,Louisville,Kentucky,40280
1677 Westend Street,Dallas,Texas,75287
5544 Hoepker Center,Henderson,Nevada,89074
4661 Rusk Crossing,Des Moines,Iowa,50335
8 Rieder Plaza,Abilene,Texas,79699
16 Nevada Place,Kansas City,Kansas,66160
67 Delladonna Point,Denver,Colorado,80235
6 Leroy Lane,Aurora,Colorado,80015
83 Manitowish Plaza,Omaha,Nebraska,68124
868 Warner Parkway,San Bernardino,California,92424
74067 Dottie Road,Manchester,New Hampshire,03105
717 Towne Park,Atlanta,Georgia,30336
9855 Hudson Pass,Fort Lauderdale,Florida,33310
47 Fairfield Park,Albany,New York,12237
81157 Duke Trail,Dayton,Ohio,45403
680 Kropf Alley,Fort Worth,Texas,76198
60363 Carey Point,Durham,North Carolina,27717
85441 Loomis Road,Shawnee Mission,Kansas,66205
717 Golf Avenue,Providence,Rhode Island,02905
0 4th Drive,Dallas,Texas,75277
327 Luster Crossing,Madison,Wisconsin,53790
7286 Park Meadow Junction,San Bernardino,California,92410
7782 Shopko Plaza,New York City,New York,10160
13911 Becker Court,Lawrenceville,Georgia,30045
2 Burrows Place,Dallas,Texas,75287
8529 Farwell Way,Tulsa,Oklahoma,74108
2 Holy Cross Junction,Billings,Montana,59112
31 Waubesa Lane,Peoria,Illinois,61640
3 7th Pass,Great Neck,New York,11024
7 Express Crossing,Aurora,Colorado,80044
2999 Esker Way,Schaumburg,Illinois,60193
8435 Melby Way,Cleveland,Ohio,44105
0 Union Terrace,Albuquerque,New Mexico,87190
14 Sage Lane,San Jose,California,95113
931 Blue Bill Park Parkway,Baton Rouge,Louisiana,70836
1128 Sunnyside Point,Montgomery,Alabama,36109
3 Northwestern Terrace,Colorado Springs,Colorado,80925
2 Macpherson Drive,Erie,Pennsylvania,16534
5361 Ohio Court,Long Beach,California,90847
7229 Hollow Ridge Avenue,Staten Island,New York,10310
8349 Fallview Way,Corpus Christi,Texas,78415
99910 Nobel Road,Loretto,Minnesota,55598
3188 Rutledge Alley,Naples,Florida,33963
983 Texas Way,Dayton,Ohio,45490
4305 Bultman Park,San Angelo,Texas,76905
1267 Stoughton Trail,Washington,District of Columbia,20525
78 Pierstorff Parkway,Newport News,Virginia,23605
87 Gulseth Center,Nashville,Tennessee,37210
4 Arizona Center,Boise,Idaho,83757
99 Mitchell Lane,Charlotte,North Carolina,28230
20472 Elmside Road,Kansas City,Missouri,64160
38 Weeping Birch Place,Prescott,Arizona,86305
07409 Carey Junction,Pittsburgh,Pennsylvania,15225
39233 Transport Point,Daytona Beach,Florida,32123
19992 Helena Plaza,Houston,Texas,77240
058 Memorial Place,Memphis,Tennessee,38197
0 Kipling Parkway,El Paso,Texas,88525
47 Armistice Road,Boise,Idaho,83711
14 Kropf Junction,Jersey City,New Jersey,07305
57431 Springs Crossing,Seattle,Washington,98140
177 Meadow Ridge Point,Kansas City,Missouri,64199
39921 Melvin Alley,Phoenix,Arizona,85083
24 Carberry Alley,Milwaukee,Wisconsin,53210
3 Waubesa Junction,Harrisburg,Pennsylvania,17121
2801 Melody Place,High Point,North Carolina,27264
95152 Namekagon Hill,Trenton,New Jersey,08650
00956 Mayer Lane,Harrisburg,Pennsylvania,17126
35 Eastlawn Plaza,Stockton,California,95210
1 Del Mar Parkway,Houston,Texas,77255
2 Canary Park,Louisville,Kentucky,40205
96230 Lakeland Circle,Pensacola,Florida,32511
72637 Havey Road,San Antonio,Texas,78296
91 Orin Road,Houston,Texas,77260
98938 Grim Center,Greensboro,North Carolina,27499
8211 Rockefeller Way,Richmond,Virginia,23285
15 Hanover Crossing,Indianapolis,Indiana,46216
7 Harbort Center,East Saint Louis,Illinois,62205
15 Miller Street,Austin,Texas,78703
8599 Park Meadow Park,Fullerton,California,92835
86 Carey Parkway,San Diego,California,92127
01 Longview Point,Longview,Texas,75605
62 Ludington Drive,Tuscaloosa,Alabama,35487
3700 Lindbergh Terrace,Montgomery,Alabama,36134
74545 Milwaukee Lane,Los Angeles,California,90055
49 Hovde Plaza,Sacramento,California,94273
7 David Place,Oakland,California,94627
2 Autumn Leaf Hill,Sioux Falls,South Dakota,57198
427 North Trail,Garland,Texas,75049
9 Jana Parkway,Boston,Massachusetts,02119
87 School Trail,Gatesville,Texas,76598
132 Donald Point,Washington,District of Columbia,20057
56 Meadow Valley Way,Springfield,Massachusetts,01152
235 Pine View Road,Pocatello,Idaho,83206
0401 Elgar Avenue,Fort Wayne,Indiana,46857
051 Ridgeway Crossing,Orlando,Florida,32808
521 Gale Avenue,Los Angeles,California,90030
3143 Banding Crossing,San Rafael,California,94913
4524 Meadow Valley Parkway,San Francisco,California,94169
53601 Browning Center,Mobile,Alabama,36641
8861 Mifflin Street,Austin,Texas,78721
68026 Hanover Hill,Dallas,Texas,75367
6840 Del Mar Plaza,Hartford,Connecticut,06145
486 Scott Hill,Detroit,Michigan,48258
9977 Cardinal Pass,Tucson,Arizona,85705
4 Longview Place,San Antonio,Texas,78255
6178 Northfield Center,Indianapolis,Indiana,46202
7 Drewry Parkway,North Port,Florida,34290
5704 Pierstorff Trail,Phoenix,Arizona,85030
611 Fairview Circle,Baltimore,Maryland,21239
91915 Anderson Center,Albany,New York,12210
2481 Warner Hill,Santa Cruz,California,95064
15376 6th Trail,San Francisco,California,94132
1 Dahle Way,Daytona Beach,Florida,32128
17806 Everett Point,Waterbury,Connecticut,06726
8222 Lien Lane,Shreveport,Louisiana,71151
93 Hagan Court,Washington,District of Columbia,20310
89829 Dunning Alley,Santa Ana,California,92725
144 Lyons Center,Corpus Christi,Texas,78410
3 Welch Place,Merrifield,Virginia,22119
313 Milwaukee Lane,New Orleans,Louisiana,70149
146 Sherman Point,Roanoke,Virginia,24048
06 Holmberg Pass,New Orleans,Louisiana,70129
1 Bayside Court,Saint Louis,Missouri,63104
92205 Nancy Junction,Washington,District of Columbia,20442
9 Oak Valley Court,Salt Lake City,Utah,84110
159 Esch Avenue,Boston,Massachusetts,02283
65963 Karstens Trail,Louisville,Kentucky,40205
6 Montana Plaza,Spokane,Washington,99215
804 Goodland Hill,Fairfield,Connecticut,06825
957 Maywood Road,Metairie,Louisiana,70005
18854 Buena Vista Place,Sacramento,California,94297
815 Bultman Court,Phoenix,Arizona,85025
327 Independence Crossing,Fargo,North Dakota,58122
32153 Kensington Road,Louisville,Kentucky,40225
2 Norway Maple Drive,Saint Louis,Missouri,63104
08 Homewood Circle,Sacramento,California,94263
768 Mcbride Point,Denver,Colorado,80279
0 Aberg Place,Dallas,Texas,75392
431 Novick Plaza,Roanoke,Virginia,24014
757 Fairview Point,Colorado Springs,Colorado,80930
89316 Village Green Terrace,Escondido,California,92030
4572 Magdeline Place,Dayton,Ohio,45432
2828 Esch Place,Boston,Massachusetts,02109
56134 Merchant Avenue,Tampa,Florida,33620
24025 Johnson Junction,Metairie,Louisiana,70033
71242 Arapahoe Park,Savannah,Georgia,31422
2 Crownhardt Plaza,Hampton,Virginia,23668
57 Sunbrook Alley,Lincoln,Nebraska,68517
90 Carey Circle,Sandy,Utah,84093
80149 Maywood Park,Springfield,Massachusetts,01114
8 Sloan Pass,Chicago,Illinois,60630
50716 Northwestern Point,Greensboro,North Carolina,27409
87833 Farmco Parkway,Charlotte,North Carolina,28242
5706 American Ash Court,Springfield,Illinois,62776
0806 Emmet Point,Saint Petersburg,Florida,33705
45 Northview Avenue,Naples,Florida,33963
42674 Del Sol Trail,Wichita,Kansas,67260
7423 Lakewood Trail,Washington,District of Columbia,20420
7389 Riverside Way,San Diego,California,92121
987 Claremont Point,Columbus,Ohio,43220
4342 Stone Corner Point,Levittown,Pennsylvania,19058
8723 Tomscot Drive,Johnson City,Tennessee,37605
59917 Bluestem Center,Chicago,Illinois,60681
49 Monument Center,Apache Junction,Arizona,85219
0 Dorton Hill,Orlando,Florida,32885
10 Jay Park,Washington,District of Columbia,20409
63 Dorton Road,Charlotte,North Carolina,28205
855 Manley Center,Evansville,Indiana,47712
489 Anniversary Circle,Fort Wayne,Indiana,46862
65 Parkside Junction,Bridgeport,Connecticut,06673
7992 Ronald Regan Court,Bakersfield,California,93381
7 Columbus Drive,Minneapolis,Minnesota,55448
321 Orin Point,Minneapolis,Minnesota,55428
1 Ryan Pass,Trenton,New Jersey,08695
382 Butterfield Pass,Pasadena,California,91131
0 Hovde Point,Columbus,Ohio,43240
15 Farragut Avenue,Fort Myers,Florida,33994
1468 Macpherson Circle,Miami,Florida,33124
98 Carioca Lane,Frankfort,Kentucky,40618
4112 Badeau Center,San Antonio,Texas,78225
08 School Point,West Palm Beach,Florida,33405
33795 Everett Plaza,Virginia Beach,Virginia,23464
7771 Myrtle Center,Roanoke,Virginia,24034
55 Rigney Point,San Antonio,Texas,78291
4 Vidon Pass,Phoenix,Arizona,85010
8 Springview Junction,Fort Lauderdale,Florida,33320
46 Linden Lane,Harrisburg,Pennsylvania,17105
5 Carpenter Hill,Newport News,Virginia,23612
4 Spenser Hill,Pittsburgh,Pennsylvania,15279
56333 Hauk Terrace,Charlotte,North Carolina,28289
61 Schurz Crossing,Austin,Texas,78769
91 Jana Circle,Arvada,Colorado,80005
2777 Vidon Street,Pasadena,California,91117
7486 Hagan Circle,San Antonio,Texas,78285
75 East Way,Topeka,Kansas,66667
3154 Jay Place,Saint Louis,Missouri,63116
97 Hazelcrest Park,Chicago,Illinois,60619
42929 Golf View Street,New Hyde Park,New York,11044
5 Miller Way,Houston,Texas,77065
187 Westport Lane,Phoenix,Arizona,85005
02609 Schlimgen Center,Trenton,New Jersey,08603
427 Kennedy Place,Salt Lake City,Utah,84170
58 Springview Point,Topeka,Kansas,66606
68 Prairie Rose Parkway,Norfolk,Virginia,23514
08507 Morrow Circle,Detroit,Michigan,48206
627 Bonner Junction,New York City,New York,10034
583 Arrowood Way,Portland,Oregon,97216
5 Eastwood Terrace,Tampa,Florida,33620
9 Carberry Court,North Little Rock,Arkansas,72118
767 Rockefeller Way,Hartford,Connecticut,06152
53 Forest Plaza,Houston,Texas,77240
173 Jay Crossing,Kansas City,Kansas,66105
3 Clemons Road,Springfield,Missouri,65805
88731 Pepper Wood Drive,Scottsdale,Arizona,85260
9 Merchant Circle,Lincoln,Nebraska,68517
941 Washington Court,Young America,Minnesota,55573
38 Wayridge Lane,Troy,Michigan,48098
98 Stoughton Hill,Los Angeles,California,90025
5174 Summerview Parkway,New Castle,Pennsylvania,16107
75495 Summit Pass,Sacramento,California,95813
3 Acker Way,Lafayette,Indiana,47905
379 Wayridge Parkway,Wilmington,North Carolina,28405
485 Pond Street,Bronx,New York,10459
75632 Nobel Street,Irvine,California,92619
66 Anzinger Road,Philadelphia,Pennsylvania,19115
0343 Bluestem Drive,Portland,Oregon,97201
17 Merrick Street,Evanston,Illinois,60208
0 Buell Park,Las Vegas,Nevada,89140
22548 Talmadge Way,Honolulu,Hawaii,96810
86526 Emmet Center,Mesa,Arizona,85205
0693 Hansons Park,New York City,New York,10275
6241 Maryland Drive,Des Moines,Iowa,50369
806 Jenna Terrace,Fresno,California,93762
64 Meadow Ridge Plaza,Reading,Pennsylvania,19610
3 Sutteridge Way,San Antonio,Texas,78285
7470 Talisman Pass,Los Angeles,California,90015
134 Ryan Terrace,South Bend,Indiana,46614
47300 Sauthoff Road,Bakersfield,California,93386
23048 Dennis Road,Portland,Oregon,97255
70 Mendota Circle,Spokane,Washington,99205
785 Starling Terrace,Migrate,Kentucky,41905
08502 Donald Lane,Dallas,Texas,75205
06712 Village Green Drive,Winston Salem,North Carolina,27150
4596 6th Parkway,Columbus,Mississippi,39705
9486 Nobel Trail,Atlanta,Georgia,30301
4 Novick Avenue,Morgantown,West Virginia,26505
366 Morning Court,Cincinnati,Ohio,45203
1573 Goodland Center,Sacramento,California,95852
2711 International Terrace,Fort Myers,Florida,33994
99589 Melrose Terrace,Peoria,Illinois,61651
745 Lawn Pass,Erie,Pennsylvania,16522
4058 West Hill,Columbus,Ohio,43220
071 Oak Valley Road,Scottsdale,Arizona,85260
108 Sunnyside Center,Madison,Wisconsin,53785
8 Morningstar Alley,Jacksonville,Florida,32209
54108 Kingsford Crossing,Decatur,Illinois,62525
532 Esch Center,Irvine,California,92717
80 School Junction,Long Beach,California,90831
11742 Roxbury Trail,San Antonio,Texas,78285
99023 Bashford Trail,Nashville,Tennessee,37220
47904 Lindbergh Way,San Antonio,Texas,78255
88517 Stoughton Place,Vancouver,Washington,98664
9055 Waxwing Crossing,Abilene,Texas,79605
65771 Clove Court,Phoenix,Arizona,85005
7 Saint Paul Lane,Hartford,Connecticut,06105
9373 Manitowish Point,Las Vegas,Nevada,89110
844 Holy Cross Park,Gaithersburg,Maryland,20883
5 Birchwood Alley,Springfield,Massachusetts,01105
9427 Alpine Lane,Los Angeles,California,90020
1 Jay Junction,Fort Lauderdale,Florida,33336
74 Hoffman Plaza,Macon,Georgia,31210
6271 Moulton Avenue,Houston,Texas,77015
5745 Hovde Crossing,Salt Lake City,Utah,84140
4 Transport Center,South Bend,Indiana,46634
21841 Ronald Regan Parkway,Portland,Oregon,97286
1 Stoughton Plaza,San Antonio,Texas,78255
36 Onsgard Street,Troy,Michigan,48098
3102 Mccormick Parkway,Camden,New Jersey,08104
1715 Ridgeway Hill,Santa Monica,California,90405
89974 Meadow Valley Junction,Monroe,Louisiana,71208
9851 Vera Center,Fort Wayne,Indiana,46805
92272 Reindahl Parkway,Detroit,Michigan,48242
7015 Porter Lane,Madison,Wisconsin,53790
11521 Claremont Plaza,Boynton Beach,Florida,33436
8681 Burrows Crossing,Seattle,Washington,98148
8 Lien Road,Clearwater,Florida,34615
3 Lighthouse Bay Lane,Dallas,Texas,75260
55344 Annamark Way,Seattle,Washington,98140
3 Scott Center,Idaho Falls,Idaho,83405
5834 Goodland Park,Los Angeles,California,90035
5 Oak Valley Way,Burbank,California,91505
3456 Summer Ridge Alley,Washington,District of Columbia,20404
2 Northport Parkway,Cincinnati,Ohio,45296
43433 Farmco Lane,Jeffersonville,Indiana,47134
396 Homewood Road,New Orleans,Louisiana,70149
4704 Farragut Crossing,Newark,New Jersey,07188
939 Gale Road,Houston,Texas,77025
9420 Lawn Drive,Peoria,Illinois,61656
29 Glacier Hill Pass,Sacramento,California,94245
009 Division Park,New Haven,Connecticut,06510
0 Parkside Avenue,Young America,Minnesota,55551
07871 Talmadge Terrace,El Paso,Texas,88546
4143 Dawn Street,Tyler,Texas,75799
8 Anzinger Point,Phoenix,Arizona,85030
6757 Morrow Center,San Antonio,Texas,78296
7 Cherokee Avenue,San Francisco,California,94105
3872 Heath Junction,Albuquerque,New Mexico,87121
8821 Park Meadow Place,Littleton,Colorado,80161
2129 Mifflin Alley,Silver Spring,Maryland,20918
089 Shasta Circle,Rochester,New York,14614
692 Tony Circle,Lincoln,Nebraska,68583
64 Pleasure Circle,Muncie,Indiana,47306
336 Forest Run Place,Orange,California,92867
15379 Starling Road,Stamford,Connecticut,06905
1525 Pepper Wood Pass,Seattle,Washington,98175
05655 Evergreen Terrace,Akron,Ohio,44393
42784 Emmet Crossing,San Antonio,Texas,78215
7 Tomscot Way,Greenville,South Carolina,29610
738 Kings Center,Milwaukee,Wisconsin,53263
9979 Muir Center,Evansville,Indiana,47705
49212 Service Pass,Huntington,West Virginia,25721
80474 Crescent Oaks Trail,Brooklyn,New York,11241
4938 Namekagon Pass,Spokane,Washington,99260
4 Acker Street,Modesto,California,95397
3 Algoma Terrace,Seattle,Washington,98109
4178 Roth Trail,San Diego,California,92191
85 Anniversary Lane,Richmond,Virginia,23213
2 Maple Drive,Bronx,New York,10469
71776 Maryland Park,Los Angeles,California,90094
89 Jay Street,Oakland,California,94616
46 Eliot Junction,Springfield,Missouri,65898
203 Esch Street,Saint Louis,Missouri,63136
81267 Hallows Place,Chicago,Illinois,60636
0 Caliangt Drive,Panama City,Florida,32405
9408 Reinke Crossing,Seattle,Washington,98109
6703 Wayridge Hill,Albuquerque,New Mexico,87180
64142 Colorado Crossing,Boston,Massachusetts,02104
5 Northridge Street,Tampa,Florida,33625
20229 Monterey Drive,New York City,New York,10004
76 Birchwood Alley,Pittsburgh,Pennsylvania,15279
29263 Hollow Ridge Trail,Oklahoma City,Oklahoma,73179
66 Hoffman Terrace,Port Charlotte,Florida,33954
01 Dottie Pass,Lansing,Michigan,48956
1878 Northridge Terrace,Reading,Pennsylvania,19610
36079 Arkansas Park,Ogden,Utah,84409
64 Walton Street,Boise,Idaho,83732
0121 3rd Junction,Garden Grove,California,92645
08358 Golf Course Crossing,Jamaica,New York,11436
4528 Waxwing Avenue,Mobile,Alabama,36622
158 Holmberg Drive,Lubbock,Texas,79410
74833 Charing Cross Drive,New York City,New York,10165
8271 Mitchell Hill,Montgomery,Alabama,36119
3 Sauthoff Plaza,Bronx,New York,10454
3 Brickson Park Street,Ocala,Florida,34474
27 Arrowood Hill,Carol Stream,Illinois,60351
3 Surrey Way,Fort Lauderdale,Florida,33305
00 Londonderry Court,Stamford,Connecticut,06905
51177 Farmco Center,Reno,Nevada,89510
06 Marcy Place,Durham,North Carolina,27717
71530 Arkansas Court,Charleston,West Virginia,25313
73447 Gale Point,Corpus Christi,Texas,78470
5 Holmberg Trail,Inglewood,California,90305
551 Commercial Terrace,Memphis,Tennessee,38119
28943 Mccormick Center,Macon,Georgia,31296
062 Mariners Cove Avenue,Richmond,Virginia,23285
4552 Briar Crest Street,Pocatello,Idaho,83206
900 Hoepker Park,Oakland,California,94611
4 Hoard Point,Augusta,Georgia,30911
0 International Place,Kansas City,Missouri,64142
51806 Maple Terrace,Fairfax,Virginia,22036
21 Scoville Alley,Indianapolis,Indiana,46295
82 Riverside Junction,New York City,New York,10280
81 Holmberg Street,Odessa,Texas,79769
11684 Melody Drive,Miami,Florida,33153
33 Monterey Point,Orlando,Florida,32891
009 Bonner Way,Huntington,West Virginia,25770
9575 Monterey Hill,Phoenix,Arizona,85005
162 Park Meadow Drive,Denver,Colorado,80270
2 Buena Vista Park,Gastonia,North Carolina,28055
89 Longview Hill,Bradenton,Florida,34205
80 Algoma Park,Wilkes Barre,Pennsylvania,18763
77 Park Meadow Pass,Sioux Falls,South Dakota,57188
19 Chinook Park,Richmond,Virginia,23277
7 Cottonwood Point,Kansas City,Missouri,64187
18042 Basil Plaza,Charleston,South Carolina,29411
74 Schiller Park,Sioux Falls,South Dakota,57188
8885 Declaration Point,Orange,California,92867
40 Mallory Trail,Temple,Texas,76505
94 Canary Plaza,Richmond,Virginia,23203
28014 Messerschmidt Court,New Hyde Park,New York,11044
4 Corben Way,South Bend,Indiana,46620
65934 Trailsway Crossing,Bradenton,Florida,34282
208 Forster Trail,Trenton,New Jersey,08650
160 Clove Avenue,Baton Rouge,Louisiana,70883
5 Manufacturers Terrace,Brooksville,Florida,34605
3 Bobwhite Avenue,North Little Rock,Arkansas,72199
0 Sutherland Pass,Saint Louis,Missouri,63196
5 Dapin Court,Tucson,Arizona,85732
80 Karstens Avenue,Dayton,Ohio,45403
42 Eagle Crest Trail,Irving,Texas,75037
04 Algoma Court,Washington,District of Columbia,20046
4 Graedel Street,Austin,Texas,78769
1807 Hermina Place,Winter Haven,Florida,33884
78 Bluejay Crossing,Seattle,Washington,98195
93 Montana Pass,Flint,Michigan,48555
1 Memorial Park,Boise,Idaho,83716
7872 Oriole Terrace,Topeka,Kansas,66629
31 Gale Junction,Phoenix,Arizona,85077
33913 Crownhardt Junction,Shreveport,Louisiana,71166
754 South Way,Detroit,Michigan,48217
659 Jay Way,West Palm Beach,Florida,33416
20316 Duke Park,Albuquerque,New Mexico,87195
6 Paget Terrace,Riverside,California,92505
22 Grasskamp Trail,Seattle,Washington,98133
40 Hanover Way,Atlanta,Georgia,30323
576 Homewood Place,Seattle,Washington,98175
94396 Fisk Plaza,Lubbock,Texas,79491
8 Donald Drive,Indianapolis,Indiana,46247
1 Twin Pines Point,Hartford,Connecticut,06152
031 Moland Way,Sterling,Virginia,20167
80 Anniversary Lane,Shreveport,Louisiana,71137
73 Logan Center,San Rafael,California,94913
8866 Myrtle Avenue,Shawnee Mission,Kansas,66205
14177 Eastlawn Lane,Van Nuys,California,91406
5 Vahlen Point,Bronx,New York,10459
512 Ludington Way,Fort Myers,Florida,33994
4223 Arapahoe Plaza,Monroe,Louisiana,71213
9 Waubesa Center,Lynchburg,Virginia,24503
03930 Mccormick Pass,Young America,Minnesota,55551
0 Paget Park,Jackson,Mississippi,39282
629 Luster Street,Cleveland,Ohio,44191
97890 Mitchell Terrace,Lafayette,Indiana,47905
3 Warbler Junction,San Antonio,Texas,78255
36213 Dixon Trail,Rochester,New York,14639
3 Upham Park,Southfield,Michigan,48076
0 Sloan Court,Philadelphia,Pennsylvania,19191
76 Ohio Road,Topeka,Kansas,66699
372 Anniversary Court,Tampa,Florida,33686
905 Bunting Alley,Miami,Florida,33185
4 Becker Crossing,Katy,Texas,77493
013 Barby Plaza,Bakersfield,California,93311
570 Steensland Drive,Anchorage,Alaska,99507
4658 Westport Place,Spokane,Washington,99220
2422 Dapin Parkway,Allentown,Pennsylvania,18105
60714 Longview Drive,Arlington,Texas,76016
10456 Colorado Park,San Jose,California,95173
8 New Castle Crossing,Cape Coral,Florida,33915
1 Utah Trail,Naperville,Illinois,60567
314 Talmadge Road,Macon,Georgia,31296
521 Schlimgen Junction,Palatine,Illinois,60078
35 Caliangt Circle,Danbury,Connecticut,06816
6 Sullivan Junction,Baton Rouge,Louisiana,70815
7925 Arrowood Terrace,Norwalk,Connecticut,06859
285 Thackeray Avenue,Lancaster,California,93584
8462 Burrows Hill,Los Angeles,California,90025
593 Kropf Place,Mobile,Alabama,36616
91 Schurz Road,Springfield,Illinois,62718
3 Corben Lane,Corpus Christi,Texas,78470
7 Golden Leaf Center,Springfield,Massachusetts,01129
5 Hintze Way,Charlotte,North Carolina,28263
6 Fulton Pass,Brea,California,92822
99254 Morrow Park,Wilmington,Delaware,19805
05 Village Park,Southfield,Michigan,48076
177 Ruskin Place,Washington,District of Columbia,20520
45895 Pennsylvania Way,Garland,Texas,75049
18078 4th Street,Boise,Idaho,83722
0 Delaware Point,Pittsburgh,Pennsylvania,15205
10 Clyde Gallagher Court,Arlington,Texas,76016
507 Old Shore Crossing,Harrisburg,Pennsylvania,17110
0546 Corscot Road,Chicago,Illinois,60657
73904 Larry Lane,Tulsa,Oklahoma,74103
93 Village Green Center,Greensboro,North Carolina,27415
3 Oxford Parkway,New York City,New York,10249
5104 Troy Park,Orlando,Florida,32854
7 Amoth Street,Phoenix,Arizona,85099
9 Twin Pines Pass,Santa Monica,California,90405
667 Upham Pass,Miami,Florida,33283
66851 Jenifer Crossing,South Lake Tahoe,California,96154
6 Manufacturers Avenue,Wichita,Kansas,67215
0169 Delladonna Lane,Amarillo,Texas,79105
6 Grasskamp Road,Charleston,West Virginia,25389
2 Corry Way,Washington,District of Columbia,20525
7942 Michigan Plaza,Bradenton,Florida,34282
1699 International Park,Cincinnati,Ohio,45213
2887 Johnson Pass,Riverside,California,92505
5643 Cascade Point,Saint Petersburg,Florida,33705
397 Alpine Center,Jacksonville,Florida,32215
707 Vermont Street,Springfield,Illinois,62723
09652 Esker Trail,Littleton,Colorado,80161
0183 Stang Alley,Idaho Falls,Idaho,83405
40 Lawn Crossing,Springfield,Ohio,45505
5 Glacier Hill Way,Memphis,Tennessee,38131
152 Kennedy Alley,Saint Louis,Missouri,63104
6 New Castle Parkway,Boston,Massachusetts,02203
97 Mitchell Center,Worcester,Massachusetts,01605
8 Ryan Avenue,San Antonio,Texas,78220
656 Bonner Pass,Evansville,Indiana,47725
0 Forest Dale Junction,Duluth,Georgia,30195
5876 Schmedeman Circle,Gary,Indiana,46406
515 Mesta Place,Waterloo,Iowa,50706
26 American Ash Road,Springfield,Illinois,62718
12 John Wall Circle,Houston,Texas,77218
4 Hudson Terrace,Norfolk,Virginia,23509
1 Lighthouse Bay Crossing,Sioux Falls,South Dakota,57110
99476 Macpherson Place,Dallas,Texas,75236
5 Rutledge Alley,Santa Barbara,California,93106
94874 American Ash Court,Los Angeles,California,90010
8 Sullivan Way,Jacksonville,Florida,32259
18700 Maywood Pass,New Bedford,Massachusetts,02745
94 Lotheville Street,Racine,Wisconsin,53405
3119 Sloan Crossing,Sacramento,California,94297
50 Melby Terrace,Shreveport,Louisiana,71137
0 Gulseth Alley,Akron,Ohio,44315
41307 Brentwood Junction,San Antonio,Texas,78205
4 Independence Alley,Waterbury,Connecticut,06726
2164 Talisman Court,San Francisco,California,94164
405 Oneill Center,Houston,Texas,77030
61 Thackeray Pass,Des Moines,Iowa,50315
37 Crest Line Way,Hampton,Virginia,23668
52 Dovetail Center,Fort Lauderdale,Florida,33330
25206 Sugar Terrace,Young America,Minnesota,55557
00648 Shasta Lane,Peoria,Illinois,61651
901 Kropf Point,Sacramento,California,95838
023 Eagan Center,Albany,New York,12242
9519 Ridgeway Street,Saginaw,Michigan,48604
0709 Lindbergh Point,Little Rock,Arkansas,72209
8973 Gerald Court,Salt Lake City,Utah,84130
862 Browning Hill,South Bend,Indiana,46614
4576 Cardinal Drive,San Antonio,Texas,78265
8 Upham Center,Pittsburgh,Pennsylvania,15210
1 Starling Parkway,Marietta,Georgia,30061
335 Fair Oaks Street,Lansing,Michigan,48901
9032 Bartelt Lane,Houston,Texas,77223
2764 Mcbride Center,Sterling,Virginia,20167
96397 Westend Point,Des Moines,Iowa,50320
10816 Loftsgordon Road,Birmingham,Alabama,35220
845 Spenser Center,Springfield,Virginia,22156
71 Village Trail,Raleigh,North Carolina,27605
6715 Transport Hill,Albuquerque,New Mexico,87195
01 Artisan Street,Miami Beach,Florida,33141
8507 Dapin Hill,Cincinnati,Ohio,45271
0934 Boyd Drive,Washington,District of Columbia,20226
56221 Lukken Court,Levittown,Pennsylvania,19058
4 Mendota Way,El Paso,Texas,88530
96 Novick Junction,Long Beach,California,90831
170 Monterey Lane,Montgomery,Alabama,36134
459 Holy Cross Avenue,Cumming,Georgia,30130
146 Spenser Alley,Garden Grove,California,92645
932 Gale Terrace,Columbus,Ohio,43210
6 Jenifer Center,Tacoma,Washington,98405
91 Rieder Circle,Des Moines,Iowa,50347
884 Sachtjen Crossing,Colorado Springs,Colorado,80925
09 Harper Place,Silver Spring,Maryland,20910
689 Twin Pines Parkway,Flint,Michigan,48555
681 Porter Lane,Cedar Rapids,Iowa,52410
6667 Bluejay Avenue,Fresno,California,93794
3 Caliangt Court,Washington,District of Columbia,20508
35 Kennedy Road,Albany,New York,12227
0069 Cardinal Circle,Kansas City,Missouri,64136
61 Fisk Court,Dallas,Texas,75353
49 Armistice Place,Washington,District of Columbia,20442
0779 Pierstorff Alley,Chicago,Illinois,60636
3083 Sage Plaza,Tulsa,Oklahoma,74108
1 Elgar Road,Gary,Indiana,46406
189 Parkside Crossing,Sandy,Utah,84093
3 Continental Plaza,Lake Worth,Florida,33467
2171 Lake View Center,Aurora,Colorado,80044
9971 Gerald Crossing,Philadelphia,Pennsylvania,19196
547 Summerview Lane,Jersey City,New Jersey,07310
17975 Loomis Park,Los Angeles,California,90030
72 Melby Terrace,Saint Louis,Missouri,63180
424 Dixon Trail,Brooklyn,New York,11241
7 Debs Trail,Charlotte,North Carolina,28205
5688 Duke Street,Lehigh Acres,Florida,33972
173 Clemons Lane,Amarillo,Texas,79171
29 Schurz Place,Kansas City,Kansas,66112
09 Scott Plaza,Berkeley,California,94705
6 Pennsylvania Park,Baton Rouge,Louisiana,70894
97603 Kingsford Avenue,Trenton,New Jersey,08695
9 Roxbury Pass,Arlington,Virginia,22217
7 Coolidge Junction,Savannah,Georgia,31405
39755 Kingsford Avenue,San Jose,California,95194
8288 Thackeray Street,Tulsa,Oklahoma,74126
55 Park Meadow Junction,Chicago,Illinois,60604
61795 Raven Terrace,Bethesda,Maryland,20892
107 Hazelcrest Hill,Washington,District of Columbia,20226
943 Doe Crossing Park,Salt Lake City,Utah,84115
6089 West Junction,Sandy,Utah,84093
43717 Hovde Junction,Denver,Colorado,80243
6578 Cherokee Place,Madison,Wisconsin,53785
8 Surrey Pass,Waterbury,Connecticut,06705
32 Utah Plaza,Phoenix,Arizona,85045
3674 Scoville Hill,Dallas,Texas,75392
7 Sunnyside Pass,Wilmington,Delaware,19805
0601 Melvin Pass,Irving,Texas,75037
6 Alpine Drive,El Paso,Texas,79945
40 Moland Drive,Atlanta,Georgia,31106
41 Drewry Terrace,Columbus,Georgia,31914
70040 Hollow Ridge Junction,Erie,Pennsylvania,16522
1952 Calypso Junction,Miami,Florida,33164
189 Jackson Parkway,Chicago,Illinois,60609
